{"type": "FeatureCollection", "features": [ {"type": "Feature", "properties": {"norad_id": 34031, "name": "COSMOS 2251 DEB", "group": "cosmos-2251-debris", "lat": 39.393005857210234, "lon": -54.33424393319389, "alt_km": 699.2963157116519, "timestamp": "2025-12-10T20:49:52.946173+00:00", "meta": {"OBJECT_NAME": "COSMOS 2251 DEB", "OBJECT_ID": "1993-036HS", "EPOCH": "2025-12-10T12:14:01.679424", "MEAN_MOTION": 14.59640746, "ECCENTRICITY": 0.00229892, "INCLINATION": 74.0128, "RA_OF_ASC_NODE": 139.9668, "ARG_OF_PERICENTER": 260.3651, "MEAN_ANOMALY": 156.8264, "EPHEMERIS_TYPE": 0, "CLASSIFICATION_TYPE": "U", "NORAD_CAT_ID": 34031, "ELEMENT_SET_NO": 999, "REV_AT_EPOCH": 88533, "BSTAR": 0.0020476222, "MEAN_MOTION_DOT": 9.77e-05, "MEAN_MOTION_DDOT": 0}, "tle": {"line1": "1 34031U 93036HS  25344.50974166  .00009770  00000+0  20476-2 0  9991", "line2": "2 34031  74.0128 139.9668 0022989 260.3651 156.8264 14.59640746885335"}}, "geometry": {"type": "Point", "coordinates": [-54.33424393319389, 39.393005857210234]}}, {"type": "Feature", "properties": {"norad_id": 34035, "name": "COSMOS 2251 DEB", "group": "cosmos-2251-debris", "lat": -5.832374956313301, "lon": -9.012719798117434, "alt_km": 691.2141774441934, "timestamp": "2025-12-10T20:49:52.946184+00:00", "meta": {"OBJECT_NAME": "COSMOS 2251 DEB", "OBJECT_ID": "1993-036HW", "EPOCH": "2025-12-10T04:54:43.628832", "MEAN_MOTION": 14.51887587, "ECCENTRICITY": 0.0044513, "INCLINATION": 74.0661, "RA_OF_ASC_NODE": 353.9061, "ARG_OF_PERICENTER": 355.9554, "MEAN_ANOMALY": 132.5569, "EPHEMERIS_TYPE": 0, "CLASSIFICATION_TYPE": "U", "NORAD_CAT_ID": 34035, "ELEMENT_SET_NO": 999, "REV_AT_EPOCH": 87929, "BSTAR": 0.0023461, "MEAN_MOTION_DOT": 9.563e-05, "MEAN_MOTION_DDOT": 0}, "tle": {"line1": "1 34035U 93036HW  25344.20467163  .00009563  00000+0  23461-2 0  9993", "line2": "2 34035  74.0661 353.9061 0044513 355.9554 132.5569 14.51887587879291"}}, "geometry": {"type": "Point", "coordinates": [-9.012719798117434, -5.832374956313301]}}, {"type": "Feature", "properties": {"norad_id": 34036, "name": "COSMOS 2251 DEB", "group": "cosmos-2251-debris", "lat": -33.615087608779675, "lon": 142.0631024707339, "alt_km": 595.8348217494504, "timestamp": "2025-12-10T20:49:52.946194+00:00", "meta": {"OBJECT_NAME": "COSMOS 2251 DEB", "OBJECT_ID": "1993-036HX", "EPOCH": "2025-12-10T06:31:52.361184", "MEAN_MOTION": 14.9462929, "ECCENTRICITY": 0.0012901, "INCLINATION": 74.0201, "RA_OF_ASC_NODE": 154.2466, "ARG_OF_PERICENTER": 187.8957, "MEAN_ANOMALY": 172.2026, "EPHEMERIS_TYPE": 0, "CLASSIFICATION_TYPE": "U", "NORAD_CAT_ID": 34036, "ELEMENT_SET_NO": 999, "REV_AT_EPOCH": 88533, "BSTAR": 0.0061833, "MEAN_MOTION_DOT": 0.0006772, "MEAN_MOTION_DDOT": 0}, "tle": {"line1": "1 34036U 93036HX  25344.27213381  .00067720  00000+0  61833-2 0  9996", "line2": "2 34036  74.0201 154.2466 0012901 187.8957 172.2026 14.94629290885331"}}, "geometry": {"type": "Point", "coordinates": [142.0631024707339, -33.615087608779675]}}, {"type": "Feature", "properties": {"norad_id": 34037, "name": "COSMOS 2251 DEB", "group": "cosmos-2251-debris", "lat": 64.10727011275708, "lon": 89.95947365836938, "alt_km": 739.0600100777774, "timestamp": "2025-12-10T20:49:52.946204+00:00", "meta": {"OBJECT_NAME": "COSMOS 2251 DEB", "OBJECT_ID": "1993-036HY", "EPOCH": "2025-12-10T13:48:58.741632", "MEAN_MOTION": 14.34656653, "ECCENTRICITY": 0.00520503, "INCLINATION": 74.0522, "RA_OF_ASC_NODE": 54.4032, "ARG_OF_PERICENTER": 105.0753, "MEAN_ANOMALY": 255.6167, "EPHEMERIS_TYPE": 0, "CLASSIFICATION_TYPE": "U", "NORAD_CAT_ID": 34037, "ELEMENT_SET_NO": 999, "REV_AT_EPOCH": 87686, "BSTAR": 0.00074537561, "MEAN_MOTION_DOT": 2.116e-05, "MEAN_MOTION_DDOT": 0}, "tle": {"line1": "1 34037U 93036HY  25344.57567988  .00002116  00000+0  74538-3 0  9990", "line2": "2 34037  74.0522  54.4032 0052050 105.0753 255.6167 14.34656653876860"}}, "geometry": {"type": "Point", "coordinates": [89.95947365836938, 64.10727011275708]}}, {"type": "Feature", "properties": {"norad_id": 34040, "name": "COSMOS 2251 DEB", "group": "cosmos-2251-debris", "lat": 45.04082392275327, "lon": 85.70419769390334, "alt_km": 769.731580009814, "timestamp": "2025-12-10T20:49:52.946214+00:00", "meta": {"OBJECT_NAME": "COSMOS 2251 DEB", "OBJECT_ID": "1993-036JB", "EPOCH": "2025-12-10T10:05:17.987712", "MEAN_MOTION": 13.68370257, "ECCENTRICITY": 0.03429659, "INCLINATION": 73.9559, "RA_OF_ASC_NODE": 69.6955, "ARG_OF_PERICENTER": 23.541, "MEAN_ANOMALY": 338.0985, "EPHEMERIS_TYPE": 0, "CLASSIFICATION_TYPE": "U", "NORAD_CAT_ID": 34040, "ELEMENT_SET_NO": 999, "REV_AT_EPOCH": 83568, "BSTAR": 0.00057048897, "MEAN_MOTION_DOT": 7.13e-06, "MEAN_MOTION_DDOT": 0}, "tle": {"line1": "1 34040U 93036JB  25344.42034708  .00000713  00000+0  57049-3 0  9996", "line2": "2 34040  73.9559  69.6955 0342965  23.5410 338.0985 13.68370257835683"}}, "geometry": {"type": "Point", "coordinates": [85.70419769390334, 45.04082392275327]}}, {"type": "Feature", "properties": {"norad_id": 34045, "name": "COSMOS 2251 DEB", "group": "cosmos-2251-debris", "lat": 57.51509390575331, "lon": 107.54522087664574, "alt_km": 769.1609127579522, "timestamp": "2025-12-10T20:49:52.946224+00:00", "meta": {"OBJECT_NAME": "COSMOS 2251 DEB", "OBJECT_ID": "1993-036JG", "EPOCH": "2025-12-10T09:06:05.618016", "MEAN_MOTION": 14.34066774, "ECCENTRICITY": 0.00255718, "INCLINATION": 74.0388, "RA_OF_ASC_NODE": 315.1508, "ARG_OF_PERICENTER": 39.3015, "MEAN_ANOMALY": 76.8414, "EPHEMERIS_TYPE": 0, "CLASSIFICATION_TYPE": "U", "NORAD_CAT_ID": 34045, "ELEMENT_SET_NO": 999, "REV_AT_EPOCH": 87999, "BSTAR": 0.00016199023, "MEAN_MOTION_DOT": 4.29e-06, "MEAN_MOTION_DDOT": 0}, "tle": {"line1": "1 34045U 93036JG  25344.37923169  .00000429  00000+0  16199-3 0  9998", "line2": "2 34045  74.0388 315.1508 0025571  39.3015  76.8414 14.34066774879996"}}, "geometry": {"type": "Point", "coordinates": [107.54522087664574, 57.51509390575331]}}, {"type": "Feature", "properties": {"norad_id": 34046, "name": "COSMOS 2251 DEB", "group": "cosmos-2251-debris", "lat": 21.881867373060924, "lon": 20.56789500473281, "alt_km": 722.6350625985842, "timestamp": "2025-12-10T20:49:52.946233+00:00", "meta": {"OBJECT_NAME": "COSMOS 2251 DEB", "OBJECT_ID": "1993-036JH", "EPOCH": "2025-12-10T13:07:12.782208", "MEAN_MOTION": 14.46442914, "ECCENTRICITY": 0.00745757, "INCLINATION": 74.0396, "RA_OF_ASC_NODE": 14.5673, "ARG_OF_PERICENTER": 98.6528, "MEAN_ANOMALY": 52.6983, "EPHEMERIS_TYPE": 0, "CLASSIFICATION_TYPE": "U", "NORAD_CAT_ID": 34046, "ELEMENT_SET_NO": 999, "REV_AT_EPOCH": 87794, "BSTAR": 0.0016528529, "MEAN_MOTION_DOT": 6.129e-05, "MEAN_MOTION_DDOT": 0}, "tle": {"line1": "1 34046U 93036JH  25344.54667572  .00006129  00000+0  16529-2 0  9990", "line2": "2 34046  74.0396  14.5673 0074575  98.6528  52.6983 14.46442914877947"}}, "geometry": {"type": "Point", "coordinates": [20.56789500473281, 21.881867373060924]}}, {"type": "Feature", "properties": {"norad_id": 34050, "name": "COSMOS 2251 DEB", "group": "cosmos-2251-debris", "lat": -55.700386294256646, "lon": -142.01740316437963, "alt_km": 1061.288442431366, "timestamp": "2025-12-10T20:49:52.946243+00:00", "meta": {"OBJECT_NAME": "COSMOS 2251 DEB", "OBJECT_ID": "1993-036JM", "EPOCH": "2025-12-10T11:39:21.456000", "MEAN_MOTION": 13.96175277, "ECCENTRICITY": 0.02145622, "INCLINATION": 74.0885, "RA_OF_ASC_NODE": 13.919, "ARG_OF_PERICENTER": 78.8162, "MEAN_ANOMALY": 38.6968, "EPHEMERIS_TYPE": 0, "CLASSIFICATION_TYPE": "U", "NORAD_CAT_ID": 34050, "ELEMENT_SET_NO": 999, "REV_AT_EPOCH": 85400, "BSTAR": 0.00076263876, "MEAN_MOTION_DOT": 1.25e-05, "MEAN_MOTION_DDOT": 0}, "tle": {"line1": "1 34050U 93036JM  25344.48566500  .00001250  00000+0  76264-3 0  9990", "line2": "2 34050  74.0885  13.9190 0214562  78.8162  38.6968 13.96175277854006"}}, "geometry": {"type": "Point", "coordinates": [-142.01740316437963, -55.700386294256646]}}, {"type": "Feature", "properties": {"norad_id": 34053, "name": "COSMOS 2251 DEB", "group": "cosmos-2251-debris", "lat": 8.581132666043523, "lon": 62.68072549172677, "alt_km": 1300.0625611839514, "timestamp": "2025-12-10T20:49:52.946253+00:00", "meta": {"OBJECT_NAME": "COSMOS 2251 DEB", "OBJECT_ID": "1993-036JQ", "EPOCH": "2025-12-10T04:00:04.056768", "MEAN_MOTION": 13.49154743, "ECCENTRICITY": 0.04220731, "INCLINATION": 73.8443, "RA_OF_ASC_NODE": 246.3173, "ARG_OF_PERICENTER": 35.2938, "MEAN_ANOMALY": 327.5344, "EPHEMERIS_TYPE": 0, "CLASSIFICATION_TYPE": "U", "NORAD_CAT_ID": 34053, "ELEMENT_SET_NO": 999, "REV_AT_EPOCH": 82649, "BSTAR": 0.0010812804, "MEAN_MOTION_DOT": 1.157e-05, "MEAN_MOTION_DDOT": 0}, "tle": {"line1": "1 34053U 93036JQ  25344.16671362  .00001157  00000+0  10813-2 0  9994", "line2": "2 34053  73.8443 246.3173 0422073  35.2938 327.5344 13.49154743826498"}}, "geometry": {"type": "Point", "coordinates": [62.68072549172677, 8.581132666043523]}}, {"type": "Feature", "properties": {"norad_id": 34056, "name": "COSMOS 2251 DEB", "group": "cosmos-2251-debris", "lat": -39.51048800530464, "lon": -86.64331139547626, "alt_km": 833.646077853824, "timestamp": "2025-12-10T20:49:52.946263+00:00", "meta": {"OBJECT_NAME": "COSMOS 2251 DEB", "OBJECT_ID": "1993-036JT", "EPOCH": "2025-12-10T09:59:57.306336", "MEAN_MOTION": 14.20540907, "ECCENTRICITY": 0.01242589, "INCLINATION": 74.0593, "RA_OF_ASC_NODE": 80.5311, "ARG_OF_PERICENTER": 128.9725, "MEAN_ANOMALY": 303.7363, "EPHEMERIS_TYPE": 0, "CLASSIFICATION_TYPE": "U", "NORAD_CAT_ID": 34056, "ELEMENT_SET_NO": 999, "REV_AT_EPOCH": 86378, "BSTAR": 0.0015906063, "MEAN_MOTION_DOT": 3.672e-05, "MEAN_MOTION_DDOT": 0}, "tle": {"line1": "1 34056U 93036JT  25344.41663549  .00003672  00000+0  15906-2 0  9995", "line2": "2 34056  74.0593  80.5311 0124258 128.9725 303.7363 14.20540907863781"}}, "geometry": {"type": "Point", "coordinates": [-86.64331139547626, -39.51048800530464]}}]}